{"version": 0.6, "generator": "Overpass API 0.7.62.5 1bd436f1", "osm3s": {"timestamp_osm_base": "2025-05-27T11:14:00Z", "copyright": "The data included in this document is from www.openstreetmap.org. The data is made available under ODbL."}, "elements": [{"type": "node", "id": 6040740746, "lat": 22.4673294, "lon": 120.4407059}, {"type": "node", "id": 6040740747, "lat": 22.4673875, "lon": 120.4411022}, {"type": "node", "id": 6040740748, "lat": 22.467441, "lon": 120.4410912}, {"type": "node", "id": 6040740749, "lat": 22.4676142, "lon": 120.4422525}, {"type": "node", "id": 6040740750, "lat": 22.4673424, "lon": 120.4423109}, {"type": "node", "id": 6040740751, "lat": 22.4671307, "lon": 120.4408741}, {"type": "node", "id": 6052990785, "lat": 22.4655695, "lon": 120.4385192}, {"type": "node", "id": 6052990787, "lat": 22.4653971, "lon": 120.4384168}, {"type": "node", "id": 6052990788, "lat": 22.4655191, "lon": 120.4385671}, {"type": "node", "id": 6052990789, "lat": 22.4655929, "lon": 120.4381196}, {"type": "node", "id": 6052990790, "lat": 22.4657718, "lon": 120.4383234}, {"type": "node", "id": 6052990791, "lat": 22.4656166, "lon": 120.4384871}, {"type": "node", "id": 6052990792, "lat": 22.4656547, "lon": 120.4385294}, {"type": "node", "id": 6052990793, "lat": 22.4658523, "lon": 120.4383151}, {"type": "node", "id": 6052990794, "lat": 22.4656418, "lon": 120.4380714}, {"type": "node", "id": 6052990795, "lat": 22.4669242, "lon": 120.4395802}, {"type": "node", "id": 6052990796, "lat": 22.4663045, "lon": 120.4388346}, {"type": "node", "id": 6052990797, "lat": 22.4660517, "lon": 120.4390706}, {"type": "node", "id": 6052990798, "lat": 22.466369, "lon": 120.4394488}, {"type": "node", "id": 6052990799, "lat": 22.4663541, "lon": 120.4394676}, {"type": "node", "id": 6052990800, "lat": 22.4664086, "lon": 120.4395373}, {"type": "node", "id": 6052990801, "lat": 22.4664285, "lon": 120.4395132}, {"type": "node", "id": 6052990802, "lat": 22.4664805, "lon": 120.4395722}, {"type": "node", "id": 6052990803, "lat": 22.4665276, "lon": 120.4395292}, {"type": "node", "id": 6052990804, "lat": 22.4665797, "lon": 120.4395963}, {"type": "node", "id": 6052990805, "lat": 22.4666491, "lon": 120.4396741}, {"type": "node", "id": 6052990806, "lat": 22.4666268, "lon": 120.4397036}, {"type": "node", "id": 6052990807, "lat": 22.4666788, "lon": 120.4397653}, {"type": "node", "id": 6052990808, "lat": 22.4667383, "lon": 120.4397653}, {"type": "node", "id": 6068385837, "lat": 22.4659503, "lon": 120.4384488}, {"type": "node", "id": 6068385838, "lat": 22.4661378, "lon": 120.4386653}, {"type": "node", "id": 6068385839, "lat": 22.4660607, "lon": 120.4387736}, {"type": "node", "id": 6068385840, "lat": 22.4659607, "lon": 120.4388728}, {"type": "node", "id": 6068385841, "lat": 22.4658815, "lon": 120.4389247}, {"type": "node", "id": 6068385842, "lat": 22.4657085, "lon": 120.4387082}, {"type": "node", "id": 6068385843, "lat": 22.4657898, "lon": 120.438636}, {"type": "node", "id": 6068385844, "lat": 22.4659023, "lon": 120.4387713}, {"type": "node", "id": 6068385845, "lat": 22.4659857, "lon": 120.4386811}, {"type": "node", "id": 6068385846, "lat": 22.4658731, "lon": 120.4385323}, {"type": "node", "id": 11027022586, "lat": 22.4668286, "lon": 120.4398615}, {"type": "node", "id": 11027022587, "lat": 22.466648, "lon": 120.4400213}, {"type": "node", "id": 11027022593, "lat": 22.4654475, "lon": 120.4383689}, {"type": "node", "id": 11027030369, "lat": 22.4655417, "lon": 120.4375489}, {"type": "node", "id": 11027030370, "lat": 22.46555, "lon": 120.4376013}, {"type": "node", "id": 11027030371, "lat": 22.4655238, "lon": 120.4376062}, {"type": "node", "id": 11027030372, "lat": 22.4655155, "lon": 120.4375537}, {"type": "node", "id": 11027030439, "lat": 22.4657592, "lon": 120.4376722}, {"type": "node", "id": 11027030440, "lat": 22.4657139, "lon": 120.4377207}, {"type": "node", "id": 11027030441, "lat": 22.4656577, "lon": 120.4376593}, {"type": "node", "id": 11027030442, "lat": 22.465703, "lon": 120.4376108}, {"type": "node", "id": 11027030443, "lat": 22.4655795, "lon": 120.4378716}, {"type": "node", "id": 11027030444, "lat": 22.4655317, "lon": 120.4379213}, {"type": "node", "id": 11027030445, "lat": 22.4654753, "lon": 120.4378576}, {"type": "node", "id": 11027030446, "lat": 22.4655231, "lon": 120.437808}, {"type": "node", "id": 12189565372, "lat": 22.4676206, "lon": 120.439666}, {"type": "node", "id": 12189565373, "lat": 22.4676819, "lon": 120.4397595}, {"type": "node", "id": 12189565374, "lat": 22.4675779, "lon": 120.4398394}, {"type": "node", "id": 12189565375, "lat": 22.4675166, "lon": 120.4397459}, {"type": "node", "id": 12189565376, "lat": 22.4675619, "lon": 120.4395459}, {"type": "node", "id": 12189565377, "lat": 22.4676254, "lon": 120.4396374}, {"type": "node", "id": 12189565378, "lat": 22.4674893, "lon": 120.4397481}, {"type": "node", "id": 12189565379, "lat": 22.4673926, "lon": 120.4396089}, {"type": "node", "id": 12189565380, "lat": 22.467612, "lon": 120.4394305}, {"type": "node", "id": 12189565381, "lat": 22.4676451, "lon": 120.4394782}, {"type": "node", "id": 12189565382, "lat": 22.4673551, "lon": 120.4391116}, {"type": "node", "id": 12189565383, "lat": 22.4674121, "lon": 120.4391798}, {"type": "node", "id": 12189565384, "lat": 22.4672864, "lon": 120.4393029}, {"type": "node", "id": 12189565385, "lat": 22.4672294, "lon": 120.4392348}, {"type": "node", "id": 12189565386, "lat": 22.4673297, "lon": 120.4391191}, {"type": "node", "id": 12189565387, "lat": 22.4672284, "lon": 120.4392234}, {"type": "node", "id": 12189565388, "lat": 22.4671271, "lon": 120.4391081}, {"type": "node", "id": 12189565389, "lat": 22.4672285, "lon": 120.4390039}, {"type": "node", "id": 12189565390, "lat": 22.4672077, "lon": 120.43899}, {"type": "node", "id": 12189565391, "lat": 22.4670844, "lon": 120.4391024}, {"type": "node", "id": 12189565392, "lat": 22.4669972, "lon": 120.4389903}, {"type": "node", "id": 12189565393, "lat": 22.4671204, "lon": 120.4388779}, {"type": "node", "id": 12189565394, "lat": 22.4669791, "lon": 120.4387097}, {"type": "node", "id": 12189565395, "lat": 22.4670893, "lon": 120.4388525}, {"type": "node", "id": 12189565396, "lat": 22.4669896, "lon": 120.4389425}, {"type": "node", "id": 12189565397, "lat": 22.4668794, "lon": 120.4387998}, {"type": "node", "id": 12189565398, "lat": 22.4667864, "lon": 120.4384751}, {"type": "node", "id": 12189565399, "lat": 22.4669661, "lon": 120.4387015}, {"type": "node", "id": 12189565400, "lat": 22.4668747, "lon": 120.4387863}, {"type": "node", "id": 12189585001, "lat": 22.4666952, "lon": 120.4385599}, {"type": "node", "id": 12189585002, "lat": 22.4665802, "lon": 120.4382097}, {"type": "node", "id": 12189585003, "lat": 22.4667337, "lon": 120.4383936}, {"type": "node", "id": 12189585004, "lat": 22.4666787, "lon": 120.4384473}, {"type": "node", "id": 12189585005, "lat": 22.4666298, "lon": 120.4383888}, {"type": "node", "id": 12189585006, "lat": 22.4666104, "lon": 120.4384077}, {"type": "node", "id": 12189585007, "lat": 22.4665058, "lon": 120.4382825}, {"type": "node", "id": 12189585008, "lat": 22.4663211, "lon": 120.4378616}, {"type": "node", "id": 12189585009, "lat": 22.4664398, "lon": 120.4380044}, {"type": "node", "id": 12189585010, "lat": 22.4664053, "lon": 120.4380379}, {"type": "node", "id": 12189585011, "lat": 22.4663377, "lon": 120.4379566}, {"type": "node", "id": 12189585012, "lat": 22.4662193, "lon": 120.4380718}, {"type": "node", "id": 12189585013, "lat": 22.4661683, "lon": 120.4380104}, {"type": "node", "id": 12189585014, "lat": 22.4661564, "lon": 120.4377947}, {"type": "node", "id": 12189585015, "lat": 22.4662161, "lon": 120.4377382}, {"type": "node", "id": 12189585016, "lat": 22.4662679, "lon": 120.4378022}, {"type": "node", "id": 12189585017, "lat": 22.4663102, "lon": 120.4377621}, {"type": "node", "id": 12189585018, "lat": 22.4661936, "lon": 120.4376181}, {"type": "node", "id": 12189585019, "lat": 22.4660917, "lon": 120.4377147}, {"type": "way", "id": 641430265, "nodes": [11027022586, 6040740746, 6040740747, 6040740748, 6040740749, 6040740750, 6040740751, 11027022587, 11027022586], "tags": {"building": "yes", "name": "\u6771\u6e2f\u6f01\u8239\u5378\u9b5a\u78bc\u982d\u51b7\u51cd\u8ca8\u6ac3\u88dd\u6ac3\u5340"}}, {"type": "way", "id": 643136275, "nodes": [6052990785, 11027022593, 6052990787, 6052990788, 6052990785], "tags": {"building": "yes", "government": "customs", "name": "\u6771\u6e2f\u6f01\u6e2f\u5b89\u6aa2\u6240", "office": "government"}}, {"type": "way", "id": 643136276, "nodes": [6052990789, 6052990790, 6052990791, 6052990792, 6052990793, 6052990794, 6052990789], "tags": {"building": "yes"}}, {"type": "way", "id": 643136277, "nodes": [6052990795, 6052990796, 6052990797, 6052990798, 6052990799, 6052990800, 6052990801, 6052990802, 6052990803, 6052990804, 6052990805, 6052990806, 6052990807, 6052990808, 6052990795], "tags": {"building": "industrial"}}, {"type": "way", "id": 645606567, "nodes": [6068385837, 6068385838, 6068385839, 6068385840, 6068385841, 6068385842, 6068385843, 6068385844, 6068385845, 6068385846, 6068385837], "tags": {"building": "yes"}}, {"type": "way", "id": 1187511219, "nodes": [11027030369, 11027030370, 11027030371, 11027030372, 11027030369], "tags": {"building": "yes", "name": "\u9baa\u9b5a\u610f\u8c61"}}, {"type": "way", "id": 1187511224, "nodes": [11027030439, 11027030440, 11027030441, 11027030442, 11027030439], "tags": {"building": "yes"}}, {"type": "way", "id": 1187511225, "nodes": [11027030443, 11027030444, 11027030445, 11027030446, 11027030443], "tags": {"access": "no", "amenity": "toilets", "building": "yes", "name": "(\u65bd\u5de5\u4e2d)"}}, {"type": "way", "id": 1317077243, "nodes": [12189565372, 12189565373, 12189565374, 12189565375, 12189565372], "tags": {"addr:city": "\u5c4f\u6771\u7e23", "addr:district": "\u6771\u6e2f\u93ae", "addr:postcode": "928", "addr:street": "\u671d\u9686\u8def", "amenity": "restaurant", "building": "yes", "cuisine": "seafood", "delivery": "no", "name": "\u963f\u8ca1\u6d77\u7522", "opening_hours": "08:00-20:00", "outdoor_seating": "yes", "takeaway": "yes"}}, {"type": "way", "id": 1317077244, "nodes": [12189565376, 12189565377, 12189565378, 12189565379, 12189565380, 12189565381, 12189565376], "tags": {"addr:city": "\u5c4f\u6771\u7e23", "addr:district": "\u6771\u6e2f\u93ae", "addr:postcode": "928", "addr:street": "\u671d\u9686\u8def", "amenity": "restaurant", "building": "yes", "contact:facebook": "https://www.facebook.com/people/\u6771\u6e2f\u9577\u5104\u6d77\u7522\u5e97/100054507218732/", "cuisine": "seafood", "delivery": "no", "name": "\u9577\u5104\u6d77\u7522", "opening_hours": "09:00-22:00", "outdoor_seating": "yes", "phone": "+886 8 8751933", "takeaway": "yes"}}, {"type": "way", "id": 1317077245, "nodes": [12189565382, 12189565383, 12189565384, 12189565385, 12189565382], "tags": {"addr:city": "\u5c4f\u6771\u7e23", "addr:district": "\u6771\u6e2f\u93ae", "addr:postcode": "928", "addr:street": "\u671d\u9686\u8def", "amenity": "restaurant", "building": "yes", "contact:facebook": "https://www.facebook.com/DongGangLiJunHaiXianTanKao/", "cuisine": "seafood", "delivery": "no", "name": "\u9e97\u541b\u6d77\u9bae\u70ad\u70e4", "opening_hours": "17:00-26:00", "outdoor_seating": "yes", "takeaway": "yes"}}, {"type": "way", "id": 1317077246, "nodes": [12189565386, 12189565387, 12189565388, 12189565389, 12189565386], "tags": {"addr:city": "\u5c4f\u6771\u7e23", "addr:district": "\u6771\u6e2f\u93ae", "addr:postcode": "928", "addr:street": "\u671d\u9686\u8def", "amenity": "restaurant", "building": "yes", "cuisine": "seafood", "delivery": "no", "name": "\u5229\u6d77\u9bae\u78b3\u70e4", "opening_hours": "17:00-27:00", "outdoor_seating": "yes", "reservation": "recommended", "takeaway": "yes"}}, {"type": "way", "id": 1317077247, "nodes": [12189565390, 12189565391, 12189565392, 12189565393, 12189565390], "tags": {"addr:city": "\u5c4f\u6771\u7e23", "addr:district": "\u6771\u6e2f\u93ae", "addr:postcode": "928", "addr:street": "\u671d\u9686\u8def", "amenity": "restaurant", "building": "yes", "cuisine": "seafood", "delivery": "no", "name": "\u5305\u6eff\u6d77\u9bae", "opening_hours": "09:00-20:00; Mo off", "outdoor_seating": "yes", "takeaway": "yes"}}, {"type": "way", "id": 1317077248, "nodes": [12189565394, 12189565395, 12189565396, 12189565397, 12189565394], "tags": {"addr:city": "\u5c4f\u6771\u7e23", "addr:district": "\u6771\u6e2f\u93ae", "addr:postcode": "928", "addr:street": "\u671d\u9686\u8def", "amenity": "restaurant", "building": "yes", "cuisine": "seafood", "delivery": "no", "name": "\u5409\u5229\u6d77\u9bae\u78b3\u70e4", "opening_hours": "Mo-We 16:30-27:00; Th off; Fr 16:30-27:00; Sa-Su 15:00-27:00", "outdoor_seating": "yes", "takeaway": "yes"}}, {"type": "way", "id": 1317077249, "nodes": [12189565398, 12189565399, 12189565400, 12189585001, 12189565398], "tags": {"addr:city": "\u5c4f\u6771\u7e23", "addr:district": "\u6771\u6e2f\u93ae", "addr:postcode": "928", "addr:street": "\u671d\u9686\u8def", "amenity": "restaurant", "building": "yes", "contact:facebook": "https://www.facebook.com/people/\u6771\u6e2f\u725b\u54e5\u6d77\u9bae\u78b3\u70e4/100057631202125/", "cuisine": "seafood", "delivery": "no", "name": "\u725b\u54e5\u6d77\u9bae\u78b3\u70e4", "opening_hours": "Mo-Tu 17:00-25:00; We off; Th-Fr 17:00-25:00; Sa-Su 16:00-25:00", "outdoor_seating": "yes", "takeaway": "yes"}}, {"type": "way", "id": 1317077250, "nodes": [12189585002, 12189585003, 12189585004, 12189585005, 12189585006, 12189585007, 12189585002], "tags": {"addr:city": "\u5c4f\u6771\u7e23", "addr:district": "\u6771\u6e2f\u93ae", "addr:postcode": "928", "addr:street": "\u671d\u9686\u8def", "amenity": "restaurant", "building": "yes", "cuisine": "seafood", "delivery": "no", "email": "mie0304@gmail.com", "name": "\u7acb\u6797\u6d77\u9bae\u78b3\u70e4", "opening_hours": "16:00-27:00; Tu off", "outdoor_seating": "yes", "takeaway": "yes"}}, {"type": "way", "id": 1317077251, "nodes": [12189585008, 12189585009, 12189585010, 12189585011, 12189585012, 12189585013, 12189585008], "tags": {"addr:city": "\u5c4f\u6771\u7e23", "addr:district": "\u6771\u6e2f\u93ae", "addr:postcode": "928", "addr:street": "\u671d\u9686\u8def", "amenity": "restaurant", "building": "yes", "cuisine": "seafood", "delivery": "no", "name": "\u4e00\u5403\u8239\u6d77\u9bae\u78b3\u70e4", "opening_hours": "Mo-Fr 16:30-24:00; Sa-Su 16:00-24:00", "outdoor_seating": "yes", "takeaway": "yes", "website": "https://oneeat-boat.weebly.com/"}}, {"type": "way", "id": 1317077252, "nodes": [12189585014, 12189585015, 12189585016, 12189585017, 12189585018, 12189585019, 12189585014], "tags": {"addr:city": "\u5c4f\u6771\u7e23", "addr:district": "\u6771\u6e2f\u93ae", "addr:postcode": "928", "addr:street": "\u671d\u9686\u8def", "amenity": "restaurant", "building": "yes", "contact:instagram": "https://www.instagram.com/seaview_1996/", "cuisine": "seafood", "delivery": "no", "name": "\u89c0\u6d77\u78b3\u70e4\u7b2c\u4e00\u5bb6", "opening_hours": "16:00-24:00", "outdoor_seating": "yes", "takeaway": "yes"}}]}